{
  "type": "FeatureCollection",
  "features": [
    {
      "type": "Feature",
      "properties": {
        "norad_id": 66939,
        "name": "STARLINK-36154",
        "group": "last-30-days",
        "lat": 27.249590562455996,
        "lon": 168.155462055556,
        "alt_km": 337.53133229989726,
        "timestamp": "2025-12-20T14:38:00.691020+00:00",
        "meta_object_name": "STARLINK-36154",
        "meta_object_id": "2025-286Q",
        "meta_epoch": "2025-12-20T06:00:02.999808",
        "meta_mean_motion": 15.77441134,
        "meta_eccentricity": 0.00011328,
        "meta_inclination": 53.1559,
        "meta_ra_of_asc_node": 12.6657,
        "meta_arg_of_pericenter": 88.0774,
        "meta_mean_anomaly": 173.8732,
        "meta_ephemeris_type": 0,
        "meta_classification_type": "U",
        "meta_norad_cat_id": 66939,
        "meta_element_set_no": 999,
        "meta_rev_at_epoch": 319,
        "meta_bstar": -0.010059425,
        "meta_mean_motion_dot": -0.01497023,
        "meta_mean_motion_ddot": 0,
        "tle_line1": "1 66939U 25286Q   25354.25003472 -.01497023  00000+0 -10059-1 0  9991",
        "tle_line2": "2 66939  53.1559  12.6657 0001132  88.0774 173.8732 15.77441134  3192"
      },
      "geometry": {
        "type": "Point",
        "coordinates": [
          168.155462055556,
          27.249590562455996
        ]
      }
    },
    {
      "type": "Feature",
      "properties": {
        "norad_id": 66940,
        "name": "STARLINK-36121",
        "group": "last-30-days",
        "lat": 25.764036631140065,
        "lon": 169.6508476060618,
        "alt_km": 337.9265955020828,
        "timestamp": "2025-12-20T14:38:00.691034+00:00",
        "meta_object_name": "STARLINK-36121",
        "meta_object_id": "2025-286R",
        "meta_epoch": "2025-12-20T06:00:02.999808",
        "meta_mean_motion": 15.77417652,
        "meta_eccentricity": 8.856e-05,
        "meta_inclination": 53.1558,
        "meta_ra_of_asc_node": 12.661,
        "meta_arg_of_pericenter": 79.8693,
        "meta_mean_anomaly": 184.1204,
        "meta_ephemeris_type": 0,
        "meta_classification_type": "U",
        "meta_norad_cat_id": 66940,
        "meta_element_set_no": 999,
        "meta_rev_at_epoch": 319,
        "meta_bstar": -0.010151779,
        "meta_mean_motion_dot": -0.01507526,
        "meta_mean_motion_ddot": 0,
        "tle_line1": "1 66940U 25286R   25354.25003472 -.01507526  00000+0 -10152-1 0  9997",
        "tle_line2": "2 66940  53.1558  12.6610 0000885  79.8693 184.1204 15.77417652  3191"
      },
      "geometry": {
        "type": "Point",
        "coordinates": [
          169.6508476060618,
          25.764036631140065
        ]
      }
    },
    {
      "type": "Feature",
      "properties": {
        "norad_id": 66941,
        "name": "STARLINK-36088",
        "group": "last-30-days",
        "lat": 28.739993641963135,
        "lon": 166.5961281436482,
        "alt_km": 337.14264502706465,
        "timestamp": "2025-12-20T14:38:00.691045+00:00",
        "meta_object_name": "STARLINK-36088",
        "meta_object_id": "2025-286S",
        "meta_epoch": "2025-12-20T06:00:02.999808",
        "meta_mean_motion": 15.77481768,
        "meta_eccentricity": 8.741e-05,
        "meta_inclination": 53.1559,
        "meta_ra_of_asc_node": 12.6697,
        "meta_arg_of_pericenter": 85.695,
        "meta_mean_anomaly": 174.1776,
        "meta_ephemeris_type": 0,
        "meta_classification_type": "U",
        "meta_norad_cat_id": 66941,
        "meta_element_set_no": 999,
        "meta_rev_at_epoch": 319,
        "meta_bstar": -0.010039887,
        "meta_mean_motion_dot": -0.0149671,
        "meta_mean_motion_ddot": 0,
        "tle_line1": "1 66941U 25286S   25354.25003472 -.01496710  00000+0 -10040-1 0  9996",
        "tle_line2": "2 66941  53.1559  12.6697 0000874  85.6950 174.1776 15.77481768  3199"
      },
      "geometry": {
        "type": "Point",
        "coordinates": [
          166.5961281436482,
          28.739993641963135
        ]
      }
    },
    {
      "type": "Feature",
      "properties": {
        "norad_id": 66942,
        "name": "STARLINK-36100",
        "group": "last-30-days",
        "lat": 24.24926892389081,
        "lon": 171.12295206733845,
        "alt_km": 338.306968013002,
        "timestamp": "2025-12-20T14:38:00.691055+00:00",
        "meta_object_name": "STARLINK-36100",
        "meta_object_id": "2025-286T",
        "meta_epoch": "2025-12-20T06:00:02.999808",
        "meta_mean_motion": 15.77381956,
        "meta_eccentricity": 7.886e-05,
        "meta_inclination": 53.1556,
        "meta_ra_of_asc_node": 12.6567,
        "meta_arg_of_pericenter": 82.3082,
        "meta_mean_anomaly": 183.7502,
        "meta_ephemeris_type": 0,
        "meta_classification_type": "U",
        "meta_norad_cat_id": 66942,
        "meta_element_set_no": 999,
        "meta_rev_at_epoch": 313,
        "meta_bstar": -0.01019963,
        "meta_mean_motion_dot": -0.01511562,
        "meta_mean_motion_ddot": 0,
        "tle_line1": "1 66942U 25286T   25354.25003472 -.01511562  00000+0 -10200-1 0  9998",
        "tle_line2": "2 66942  53.1556  12.6567 0000788  82.3082 183.7502 15.77381956  3132"
      },
      "geometry": {
        "type": "Point",
        "coordinates": [
          171.12295206733845,
          24.24926892389081
        ]
      }
    },
    {
      "type": "Feature",
      "properties": {
        "norad_id": 66943,
        "name": "STARLINK-36109",
        "group": "last-30-days",
        "lat": 22.658244196452344,
        "lon": 172.61784008849875,
        "alt_km": 338.80301116853025,
        "timestamp": "2025-12-20T14:38:00.691065+00:00",
        "meta_object_name": "STARLINK-36109",
        "meta_object_id": "2025-286U",
        "meta_epoch": "2025-12-20T06:00:02.999808",
        "meta_mean_motion": 15.77316607,
        "meta_eccentricity": 8.863e-05,
        "meta_inclination": 53.1556,
        "meta_ra_of_asc_node": 12.652,
        "meta_arg_of_pericenter": 79.8343,
        "meta_mean_anomaly": 188.4157,
        "meta_ephemeris_type": 0,
        "meta_classification_type": "U",
        "meta_norad_cat_id": 66943,
        "meta_element_set_no": 999,
        "meta_rev_at_epoch": 313,
        "meta_bstar": -0.010327225,
        "meta_mean_motion_dot": -0.01524252,
        "meta_mean_motion_ddot": 0,
        "tle_line1": "1 66943U 25286U   25354.25003472 -.01524252  00000+0 -10327-1 0  9999",
        "tle_line2": "2 66943  53.1556  12.6520 0000886  79.8343 188.4157 15.77316607  3131"
      },
      "geometry": {
        "type": "Point",
        "coordinates": [
          172.61784008849875,
          22.658244196452344
        ]
      }
    },
    {
      "type": "Feature",
      "properties": {
        "norad_id": 66944,
        "name": "STARLINK-36112",
        "group": "last-30-days",
        "lat": 21.136654342084615,
        "lon": 174.00389585642978,
        "alt_km": 339.1135970885189,
        "timestamp": "2025-12-20T14:38:00.691075+00:00",
        "meta_object_name": "STARLINK-36112",
        "meta_object_id": "2025-286V",
        "meta_epoch": "2025-12-20T06:00:02.999808",
        "meta_mean_motion": 15.77260565,
        "meta_eccentricity": 0.00010516,
        "meta_inclination": 53.1556,
        "meta_ra_of_asc_node": 12.6478,
        "meta_arg_of_pericenter": 94.9807,
        "meta_mean_anomaly": 175.3208,
        "meta_ephemeris_type": 0,
        "meta_classification_type": "U",
        "meta_norad_cat_id": 66944,
        "meta_element_set_no": 999,
        "meta_rev_at_epoch": 319,
        "meta_bstar": -0.010185308,
        "meta_mean_motion_dot": -0.01502636,
        "meta_mean_motion_ddot": 0,
        "tle_line1": "1 66944U 25286V   25354.25003472 -.01502636  00000+0 -10185-1 0  9994",
        "tle_line2": "2 66944  53.1556  12.6478 0001051  94.9807 175.3208 15.77260565  3191"
      },
      "geometry": {
        "type": "Point",
        "coordinates": [
          174.00389585642978,
          21.136654342084615
        ]
      }
    },
    {
      "type": "Feature",
      "properties": {
        "norad_id": 66945,
        "name": "STARLINK-36110",
        "group": "last-30-days",
        "lat": 19.542070528478153,
        "lon": 175.41530904784457,
        "alt_km": 339.68909866356626,
        "timestamp": "2025-12-20T14:38:00.691087+00:00",
        "meta_object_name": "STARLINK-36110",
        "meta_object_id": "2025-286W",
        "meta_epoch": "2025-12-20T06:00:02.999808",
        "meta_mean_motion": 15.77228374,
        "meta_eccentricity": 8.774e-05,
        "meta_inclination": 53.1554,
        "meta_ra_of_asc_node": 12.6432,
        "meta_arg_of_pericenter": 75.9311,
        "meta_mean_anomaly": 196.5078,
        "meta_ephemeris_type": 0,
        "meta_classification_type": "U",
        "meta_norad_cat_id": 66945,
        "meta_element_set_no": 999,
        "meta_rev_at_epoch": 319,
        "meta_bstar": -0.010490784,
        "meta_mean_motion_dot": -0.01539991,
        "meta_mean_motion_ddot": 0,
        "tle_line1": "1 66945U 25286W   25354.25003472 -.01539991  00000+0 -10491-1 0  9999",
        "tle_line2": "2 66945  53.1554  12.6432 0000877  75.9311 196.5078 15.77228374  3196"
      },
      "geometry": {
        "type": "Point",
        "coordinates": [
          175.41530904784457,
          19.542070528478153
        ]
      }
    }
  ]
}